CS1                     
1 49261U 21088B   26068.75173904  .00015722  00000+0  51176-3 0  9998
2 49261  97.3882 132.1684 0014129  78.0335 282.2490 15.31848439245182
STARLINK-33826          
1 63641U 25083H   26068.19991251  .00042536  00000+0  15460-2 0  9994
2 63641  43.0033   7.8334 0001423 247.1375 112.9326 15.27587536 49993
